{
  "type": "FeatureCollection",
  "features": [
    {
      "type": "Feature",
      "properties": {
        "norad_id": 37441,
        "name": "FENGYUN 1C DEB",
        "group": "fengyun-1c-debris",
        "lat": 74.23295097413342,
        "lon": 168.12271207851657,
        "alt_km": 930.4429786806568,
        "timestamp": "2025-12-23T11:34:48.451572+00:00",
        "meta_object_name": "FENGYUN 1C DEB",
        "meta_object_id": "1999-025EHK",
        "meta_epoch": "2025-12-20T19:16:48.855936",
        "meta_mean_motion": 13.14245477,
        "meta_eccentricity": 0.05088557,
        "meta_inclination": 99.146,
        "meta_ra_of_asc_node": 200.5877,
        "meta_arg_of_pericenter": 35.6,
        "meta_mean_anomaly": 327.7968,
        "meta_ephemeris_type": 0,
        "meta_classification_type": "U",
        "meta_norad_cat_id": 37441,
        "meta_element_set_no": 999,
        "meta_rev_at_epoch": 82278,
        "meta_bstar": 0.001561327,
        "meta_mean_motion_dot": 1.077e-05,
        "meta_mean_motion_ddot": 0,
        "tle_line1": "1 37441U 99025EHK 25354.80334324  .00001077  00000+0  15613-2 0  9992",
        "tle_line2": "2 37441  99.1460 200.5877 0508855  35.6000 327.7968 13.14245477822781"
      },
      "geometry": {
        "type": "Point",
        "coordinates": [
          168.12271207851657,
          74.23295097413342
        ]
      }
    },
    {
      "type": "Feature",
      "properties": {
        "norad_id": 37444,
        "name": "FENGYUN 1C DEB",
        "group": "fengyun-1c-debris",
        "lat": 30.787203132024604,
        "lon": 73.34425695784047,
        "alt_km": 679.5160985818466,
        "timestamp": "2025-12-23T11:34:48.451583+00:00",
        "meta_object_name": "FENGYUN 1C DEB",
        "meta_object_id": "1999-025EHN",
        "meta_epoch": "2025-12-22T12:13:27.412320",
        "meta_mean_motion": 14.48087249,
        "meta_eccentricity": 0.02443354,
        "meta_inclination": 99.0824,
        "meta_ra_of_asc_node": 77.7672,
        "meta_arg_of_pericenter": 319.8337,
        "meta_mean_anomaly": 38.5014,
        "meta_ephemeris_type": 0,
        "meta_classification_type": "U",
        "meta_norad_cat_id": 37444,
        "meta_element_set_no": 999,
        "meta_rev_at_epoch": 65292,
        "meta_bstar": 0.00059251996,
        "meta_mean_motion_dot": 3.15e-05,
        "meta_mean_motion_ddot": 0,
        "tle_line1": "1 37444U 99025EHN 25356.50934505  .00003150  00000+0  59252-3 0  9993",
        "tle_line2": "2 37444  99.0824  77.7672 0244335 319.8337  38.5014 14.48087249652929"
      },
      "geometry": {
        "type": "Point",
        "coordinates": [
          73.34425695784047,
          30.787203132024604
        ]
      }
    },
    {
      "type": "Feature",
      "properties": {
        "norad_id": 37448,
        "name": "FENGYUN 1C DEB",
        "group": "fengyun-1c-debris",
        "lat": 69.33653626845754,
        "lon": 36.26258407596103,
        "alt_km": 761.4505998401855,
        "timestamp": "2025-12-23T11:34:48.451591+00:00",
        "meta_object_name": "FENGYUN 1C DEB",
        "meta_object_id": "1999-025EHS",
        "meta_epoch": "2025-12-17T09:50:38.631840",
        "meta_mean_motion": 13.87103686,
        "meta_eccentricity": 0.03062777,
        "meta_inclination": 99.3197,
        "meta_ra_of_asc_node": 56.012,
        "meta_arg_of_pericenter": 46.1638,
        "meta_mean_anomaly": 316.4401,
        "meta_ephemeris_type": 0,
        "meta_classification_type": "U",
        "meta_norad_cat_id": 37448,
        "meta_element_set_no": 999,
        "meta_rev_at_epoch": 62440,
        "meta_bstar": 0.0010911098,
        "meta_mean_motion_dot": 1.811e-05,
        "meta_mean_motion_ddot": 0,
        "tle_line1": "1 37448U 99025EHS 25351.41016935  .00001811  00000+0  10911-2 0  9990",
        "tle_line2": "2 37448  99.3197  56.0120 0306277  46.1638 316.4401 13.87103686624401"
      },
      "geometry": {
        "type": "Point",
        "coordinates": [
          36.26258407596103,
          69.33653626845754
        ]
      }
    },
    {
      "type": "Feature",
      "properties": {
        "norad_id": 37460,
        "name": "FENGYUN 1C DEB",
        "group": "fengyun-1c-debris",
        "lat": 3.821854430580439,
        "lon": -6.174153907952885,
        "alt_km": 728.0639751591907,
        "timestamp": "2025-12-23T11:34:48.451600+00:00",
        "meta_object_name": "FENGYUN 1C DEB",
        "meta_object_id": "1999-025EJE",
        "meta_epoch": "2025-12-08T10:53:05.307360",
        "meta_mean_motion": 14.47840336,
        "meta_eccentricity": 0.00565903,
        "meta_inclination": 98.3779,
        "meta_ra_of_asc_node": 158.3686,
        "meta_arg_of_pericenter": 303.3518,
        "meta_mean_anomaly": 56.2265,
        "meta_ephemeris_type": 0,
        "meta_classification_type": "U",
        "meta_norad_cat_id": 37460,
        "meta_element_set_no": 999,
        "meta_rev_at_epoch": 82427,
        "meta_bstar": 0.0027403859,
        "meta_mean_motion_dot": 0.00010316,
        "meta_mean_motion_ddot": 0,
        "tle_line1": "1 37460U 99025EJE 25342.45353365  .00010316  00000+0  27404-2 0  9994",
        "tle_line2": "2 37460  98.3779 158.3686 0056590 303.3518  56.2265 14.47840336824279"
      },
      "geometry": {
        "type": "Point",
        "coordinates": [
          -6.174153907952885,
          3.821854430580439
        ]
      }
    },
    {
      "type": "Feature",
      "properties": {
        "norad_id": 37461,
        "name": "FENGYUN 1C DEB",
        "group": "fengyun-1c-debris",
        "lat": -41.99685738722879,
        "lon": 55.38329539201143,
        "alt_km": 1237.6473053965638,
        "timestamp": "2025-12-23T11:34:48.451609+00:00",
        "meta_object_name": "FENGYUN 1C DEB",
        "meta_object_id": "1999-025EJF",
        "meta_epoch": "2025-11-27T22:25:56.122176",
        "meta_mean_motion": 12.7907076,
        "meta_eccentricity": 0.0667413,
        "meta_inclination": 99.8664,
        "meta_ra_of_asc_node": 221.8984,
        "meta_arg_of_pericenter": 359.7811,
        "meta_mean_anomaly": 0.291,
        "meta_ephemeris_type": 0,
        "meta_classification_type": "U",
        "meta_norad_cat_id": 37461,
        "meta_element_set_no": 999,
        "meta_rev_at_epoch": 51845,
        "meta_bstar": 0.0053613,
        "meta_mean_motion_dot": 3.048e-05,
        "meta_mean_motion_ddot": 0,
        "tle_line1": "1 37461U 99025EJF 25331.93467734  .00003048  00000+0  53613-2 0  9997",
        "tle_line2": "2 37461  99.8664 221.8984 0667413 359.7811   0.2910 12.79070760518454"
      },
      "geometry": {
        "type": "Point",
        "coordinates": [
          55.38329539201143,
          -41.99685738722879
        ]
      }
    },
    {
      "type": "Feature",
      "properties": {
        "norad_id": 37464,
        "name": "FENGYUN 1C DEB",
        "group": "fengyun-1c-debris",
        "lat": 70.12620654227649,
        "lon": -114.17908490124324,
        "alt_km": 755.0234545662152,
        "timestamp": "2025-12-23T11:34:48.451618+00:00",
        "meta_object_name": "FENGYUN 1C DEB",
        "meta_object_id": "1999-025EJJ",
        "meta_epoch": "2025-12-21T00:24:09.973440",
        "meta_mean_motion": 13.46950437,
        "meta_eccentricity": 0.04535226,
        "meta_inclination": 102.7158,
        "meta_ra_of_asc_node": 281.3432,
        "meta_arg_of_pericenter": 99.0927,
        "meta_mean_anomaly": 266.1783,
        "meta_ephemeris_type": 0,
        "meta_classification_type": "U",
        "meta_norad_cat_id": 37464,
        "meta_element_set_no": 999,
        "meta_rev_at_epoch": 61033,
        "meta_bstar": 0.0023945622,
        "meta_mean_motion_dot": 2.662e-05,
        "meta_mean_motion_ddot": 0,
        "tle_line1": "1 37464U 99025EJJ 25355.01678210  .00002662  00000+0  23946-2 0  9995",
        "tle_line2": "2 37464 102.7158 281.3432 0453522  99.0927 266.1783 13.46950437610338"
      },
      "geometry": {
        "type": "Point",
        "coordinates": [
          -114.17908490124324,
          70.12620654227649
        ]
      }
    },
    {
      "type": "Feature",
      "properties": {
        "norad_id": 37470,
        "name": "FENGYUN 1C DEB",
        "group": "fengyun-1c-debris",
        "lat": -61.333105689826446,
        "lon": 158.35285719847693,
        "alt_km": 564.7853810147972,
        "timestamp": "2025-12-23T11:34:48.451629+00:00",
        "meta_object_name": "FENGYUN 1C DEB",
        "meta_object_id": "1999-025EJQ",
        "meta_epoch": "2025-12-22T15:04:52.855392",
        "meta_mean_motion": 15.02532407,
        "meta_eccentricity": 0.0001681,
        "meta_inclination": 98.6687,
        "meta_ra_of_asc_node": 141.1948,
        "meta_arg_of_pericenter": 324.082,
        "meta_mean_anomaly": 36.0289,
        "meta_ephemeris_type": 0,
        "meta_classification_type": "U",
        "meta_norad_cat_id": 37470,
        "meta_element_set_no": 999,
        "meta_rev_at_epoch": 65610,
        "meta_bstar": 0.0053547,
        "meta_mean_motion_dot": 0.00071788,
        "meta_mean_motion_ddot": 0,
        "tle_line1": "1 37470U 99025EJQ 25356.62838953  .00071788  00000+0  53547-2 0  9997",
        "tle_line2": "2 37470  98.6687 141.1948 0001681 324.0820  36.0289 15.02532407656105"
      },
      "geometry": {
        "type": "Point",
        "coordinates": [
          158.35285719847693,
          -61.333105689826446
        ]
      }
    }
  ]
}